start=new Date('2022-06-12T00:00:00.000Z').valueOf();
sats=[{"EPOCH":"2022-06-11T20:21:54.249984","PERIOD":"95.593","OBJECT_ID":"2021-017AC","ARG_OF_PERICENTER":"47.6868","NORAD_CAT_ID":"47748","MEAN_ANOMALY":"312.4276","ECCENTRICITY":"0.00018310","TLE_LINE2":"2 47748  53.0533 217.6090 0001831  47.6868 312.4276 15.06387513 71853","TLE_LINE1":"1 47748U 21017AC  22162.84854456  .00000065  00000-0  23248-4 0  9992","OBJECT_TYPE":"PAYLOAD","CENTER_NAME":"EARTH","MEAN_MOTION_DOT":"0.00000065","INCLINATION":"53.0533","COUNTRY_CODE":"US","RCS_SIZE":"LARGE","GP_ID":"205927460","RA_OF_ASC_NODE":"217.6090","BSTAR":"0.00002324800000","SEMIMAJOR_AXIS":"6925.387","REV_AT_EPOCH":"7185","REF_FRAME":"TEME","TIME_SYSTEM":"UTC","ELEMENT_SET_NO":"999","MEAN_MOTION":"15.06387513","EPHEMERIS_TYPE":"0","MEAN_ELEMENT_THEORY":"SGP4","MEAN_MOTION_DDOT":"0.0000000000000","DECAY_DATE":null,"APOAPSIS":"548.520","FILE":"3492149","PERIAPSIS":"545.984","SITE":"AFETR","CLASSIFICATION_TYPE":"U","LAUNCH_DATE":"2021-03-04","OBJECT_NAME":"STARLINK-2162"},{"SEMIMAJOR_AXIS":"6925.389","REV_AT_EPOCH":"7181","BSTAR":"0.00015575000000","MEAN_MOTION":"15.06386960","EPHEMERIS_TYPE":"0","MEAN_ELEMENT_THEORY":"SGP4","MEAN_MOTION_DDOT":"0.0000000000000","DECAY_DATE":null,"APOAPSIS":"548.259","PERIAPSIS":"546.248","FILE":"3492149","SITE":"AFETR","LAUNCH_DATE":"2021-03-04","OBJECT_NAME":"STARLINK-2163","CLASSIFICATION_TYPE":"U","REF_FRAME":"TEME","ELEMENT_SET_NO":"999","TIME_SYSTEM":"UTC","TLE_LINE1":"1 47749U 21017AD  22162.59790803  .00002038  00000-0  15575-3 0  9995","PERIOD":"95.593","EPOCH":"2022-06-11T14:20:59.253792","ARG_OF_PERICENTER":"62.1488","OBJECT_ID":"2021-017AD","NORAD_CAT_ID":"47749","MEAN_ANOMALY":"297.9647","TLE_LINE2":"2 47749  53.0537 218.7375 0001452  62.1488 297.9647 15.06386960 71815","ECCENTRICITY":"0.00014520","RCS_SIZE":"MEDIUM","GP_ID":"205927709","RA_OF_ASC_NODE":"218.7375","OBJECT_TYPE":"PAYLOAD","CENTER_NAME":"EARTH","INCLINATION":"53.0537","MEAN_MOTION_DOT":"0.00002038","COUNTRY_CODE":"US"},{"SEMIMAJOR_AXIS":"6925.345","REV_AT_EPOCH":"7185","BSTAR":"0.00006217500000","MEAN_MOTION_DDOT":"0.0000000000000","DECAY_DATE":null,"APOAPSIS":"548.403","MEAN_MOTION":"15.06401158","EPHEMERIS_TYPE":"0","MEAN_ELEMENT_THEORY":"SGP4","FILE":"3492149","PERIAPSIS":"546.017","LAUNCH_DATE":"2021-03-04","SITE":"AFETR","CLASSIFICATION_TYPE":"U","OBJECT_NAME":"STARLINK-2164","REF_FRAME":"TEME","ELEMENT_SET_NO":"999","TIME_SYSTEM":"UTC","TLE_LINE1":"1 47750U 21017AE  22162.84116230  .00000645  00000-0  62175-4 0  9992","EPOCH":"2022-06-11T20:11:16.422720","PERIOD":"95.592","ARG_OF_PERICENTER":"48.8357","OBJECT_ID":"2021-017AE","MEAN_ANOMALY":"311.2781","NORAD_CAT_ID":"47750","ECCENTRICITY":"0.00017230","TLE_LINE2":"2 47750  53.0526 217.6476 0001723  48.8357 311.2781 15.06401158 71852","RCS_SIZE":"LARGE","GP_ID":"205926460","RA_OF_ASC_NODE":"217.6476","OBJECT_TYPE":"PAYLOAD","CENTER_NAME":"EARTH","COUNTRY_CODE":"US","MEAN_MOTION_DOT":"0.00000645","INCLINATION":"53.0526"},{"TLE_LINE1":"1 47751U 21017AF  22162.40713223  .00003273  00000-0  23843-3 0  9998","MEAN_ANOMALY":"315.9669","NORAD_CAT_ID":"47751","ECCENTRICITY":"0.00017220","TLE_LINE2":"2 47751  53.0546 209.5794 0001722  44.1457 315.9669 15.06418048 71938","PERIOD":"95.591","EPOCH":"2022-06-11T09:46:16.224672","OBJECT_ID":"2021-017AF","ARG_OF_PERICENTER":"44.1457","GP_ID":"205926709","RA_OF_ASC_NODE":"209.5794","RCS_SIZE":"MEDIUM","INCLINATION":"53.0546","MEAN_MOTION_DOT":"0.00003273","COUNTRY_CODE":"US","CENTER_NAME":"EARTH","OBJECT_TYPE":"PAYLOAD","REV_AT_EPOCH":"7193","SEMIMAJOR_AXIS":"6925.293","BSTAR":"0.00023843000000","FILE":"3492149","PERIAPSIS":"545.966","SITE":"AFETR","LAUNCH_DATE":"2021-03-04","OBJECT_NAME":"STARLINK-2168","CLASSIFICATION_TYPE":"U","MEAN_MOTION":"15.06418048","MEAN_ELEMENT_THEORY":"SGP4","EPHEMERIS_TYPE":"0","MEAN_MOTION_DDOT":"0.0000000000000","DECAY_DATE":null,"APOAPSIS":"548.351","TIME_SYSTEM":"UTC","ELEMENT_SET_NO":"999","REF_FRAME":"TEME"},{"REV_AT_EPOCH":"7179","SEMIMAJOR_AXIS":"6925.376","BSTAR":"0.00014049000000","PERIAPSIS":"546.097","FILE":"3492149","SITE":"AFETR","CLASSIFICATION_TYPE":"U","LAUNCH_DATE":"2021-03-04","OBJECT_NAME":"STARLINK-2169","MEAN_MOTION":"15.06390971","EPHEMERIS_TYPE":"0","MEAN_ELEMENT_THEORY":"SGP4","MEAN_MOTION_DDOT":"0.0000000000000","DECAY_DATE":null,"APOAPSIS":"548.385","ELEMENT_SET_NO":"999","TIME_SYSTEM":"UTC","REF_FRAME":"TEME","TLE_LINE1":"1 47752U 21017AG  22162.57348583  .00001811  00000-0  14049-3 0  9994","MEAN_ANOMALY":"304.6229","NORAD_CAT_ID":"47752","ECCENTRICITY":"0.00016520","TLE_LINE2":"2 47752  53.0535 223.8465 0001652  55.4916 304.6229 15.06390971 71793","PERIOD":"95.593","EPOCH":"2022-06-11T13:45:49.175712","ARG_OF_PERICENTER":"55.4916","OBJECT_ID":"2021-017AG","GP_ID":"205926961","RA_OF_ASC_NODE":"223.8465","RCS_SIZE":"MEDIUM","MEAN_MOTION_DOT":"0.00001811","INCLINATION":"53.0535","COUNTRY_CODE":"US","OBJECT_TYPE":"PAYLOAD","CENTER_NAME":"EARTH"},{"TLE_LINE2":"2 47753  53.0539 227.4718 0001451  63.0999 297.0138 15.06396447 71767","ECCENTRICITY":"0.00014510","NORAD_CAT_ID":"47753","MEAN_ANOMALY":"297.0138","OBJECT_ID":"2021-017AH","ARG_OF_PERICENTER":"63.0999","EPOCH":"2022-06-11T21:08:20.522112","PERIOD":"95.592","TLE_LINE1":"1 47753U 21017AH  22162.88079308  .00002424  00000-0  18160-3 0  9994","COUNTRY_CODE":"US","INCLINATION":"53.0539","MEAN_MOTION_DOT":"0.00002424","OBJECT_TYPE":"PAYLOAD","CENTER_NAME":"EARTH","RA_OF_ASC_NODE":"227.4718","GP_ID":"205927210","RCS_SIZE":"LARGE","BSTAR":"0.00018160000000","REV_AT_EPOCH":"7176","SEMIMAJOR_AXIS":"6925.359","ELEMENT_SET_NO":"999","TIME_SYSTEM":"UTC","REF_FRAME":"TEME","CLASSIFICATION_TYPE":"U","SITE":"AFETR","LAUNCH_DATE":"2021-03-04","OBJECT_NAME":"STARLINK-2170","PERIAPSIS":"546.220","FILE":"3492149","DECAY_DATE":null,"APOAPSIS":"548.229","MEAN_MOTION_DDOT":"0.0000000000000","MEAN_ELEMENT_THEORY":"SGP4","EPHEMERIS_TYPE":"0","MEAN_MOTION":"15.06396447"},{"RA_OF_ASC_NODE":"228.8017","GP_ID":"205925961","RCS_SIZE":"LARGE","MEAN_MOTION_DOT":"0.00002397","INCLINATION":"53.0538","COUNTRY_CODE":"US","CENTER_NAME":"EARTH","OBJECT_TYPE":"PAYLOAD","TLE_LINE1":"1 47754U 21017AJ  22162.58591498  .00002397  00000-0  17979-3 0  9997","ECCENTRICITY":"0.00016360","TLE_LINE2":"2 47754  53.0538 228.8017 0001636  51.0617 309.0518 15.06399588 71689","MEAN_ANOMALY":"309.0518","NORAD_CAT_ID":"47754","OBJECT_ID":"2021-017AJ","ARG_OF_PERICENTER":"51.0617","PERIOD":"95.592","EPOCH":"2022-06-11T14:03:43.054272","LAUNCH_DATE":"2021-03-04","SITE":"AFETR","OBJECT_NAME":"STARLINK-2171","CLASSIFICATION_TYPE":"U","FILE":"3492149","PERIAPSIS":"546.082","MEAN_ELEMENT_THEORY":"SGP4","EPHEMERIS_TYPE":"0","MEAN_MOTION":"15.06399588","APOAPSIS":"548.348","DECAY_DATE":null,"MEAN_MOTION_DDOT":"0.0000000000000","ELEMENT_SET_NO":"999","TIME_SYSTEM":"UTC","REF_FRAME":"TEME","REV_AT_EPOCH":"7168","SEMIMAJOR_AXIS":"6925.350","BSTAR":"0.00017979000000"},{"TLE_LINE1":"1 47756U 21017AL  22162.58223819  .00000773  00000-0  70802-4 0  9999","MEAN_ANOMALY":"301.9199","NORAD_CAT_ID":"47756","ECCENTRICITY":"0.00016480","TLE_LINE2":"2 47756  53.0542 228.8119 0001648  58.1951 301.9199 15.06391385 71729","EPOCH":"2022-06-11T13:58:25.379616","PERIOD":"95.593","OBJECT_ID":"2021-017AL","ARG_OF_PERICENTER":"58.1951","GP_ID":"205926211","RA_OF_ASC_NODE":"228.8119","RCS_SIZE":"LARGE","COUNTRY_CODE":"US","INCLINATION":"53.0542","MEAN_MOTION_DOT":"0.00000773","CENTER_NAME":"EARTH","OBJECT_TYPE":"PAYLOAD","REV_AT_EPOCH":"7172","SEMIMAJOR_AXIS":"6925.375","BSTAR":"0.00007080200000","FILE":"3492149","PERIAPSIS":"546.099","LAUNCH_DATE":"2021-03-04","SITE":"AFETR","CLASSIFICATION_TYPE":"U","OBJECT_NAME":"STARLINK-2174","MEAN_MOTION_DDOT":"0.0000000000000","DECAY_DATE":null,"APOAPSIS":"548.381","MEAN_MOTION":"15.06391385","EPHEMERIS_TYPE":"0","MEAN_ELEMENT_THEORY":"SGP4","TIME_SYSTEM":"UTC","ELEMENT_SET_NO":"999","REF_FRAME":"TEME"},{"INCLINATION":"53.0523","MEAN_MOTION_DOT":"0.00002158","COUNTRY_CODE":"US","OBJECT_TYPE":"PAYLOAD","CENTER_NAME":"EARTH","GP_ID":"205927461","RA_OF_ASC_NODE":"227.3890","RCS_SIZE":"LARGE","MEAN_ANOMALY":"306.9108","NORAD_CAT_ID":"47757","TLE_LINE2":"2 47757  53.0523 227.3890 0001702  53.2037 306.9108 15.06394678 71713","ECCENTRICITY":"0.00017020","EPOCH":"2022-06-11T21:34:53.300928","PERIOD":"95.592","ARG_OF_PERICENTER":"53.2037","OBJECT_ID":"2021-017AM","TLE_LINE1":"1 47757U 21017AM  22162.89922802  .00002158  00000-0  16378-3 0  9998","TIME_SYSTEM":"UTC","ELEMENT_SET_NO":"999","REF_FRAME":"TEME","PERIAPSIS":"546.051","FILE":"3492149","CLASSIFICATION_TYPE":"U","SITE":"AFETR","LAUNCH_DATE":"2021-03-04","OBJECT_NAME":"STARLINK-2175","MEAN_MOTION":"15.06394678","EPHEMERIS_TYPE":"0","MEAN_ELEMENT_THEORY":"SGP4","MEAN_MOTION_DDOT":"0.0000000000000","DECAY_DATE":null,"APOAPSIS":"548.409","BSTAR":"0.00016378000000","REV_AT_EPOCH":"7171","SEMIMAJOR_AXIS":"6925.365"},{"FILE":"3492149","PERIAPSIS":"546.154","SITE":"AFETR","LAUNCH_DATE":"2021-03-04","OBJECT_NAME":"STARLINK-2178","CLASSIFICATION_TYPE":"U","MEAN_MOTION_DDOT":"0.0000000000000","DECAY_DATE":null,"APOAPSIS":"548.317","MEAN_MOTION":"15.06392838","MEAN_ELEMENT_THEORY":"SGP4","EPHEMERIS_TYPE":"0","TIME_SYSTEM":"UTC","ELEMENT_SET_NO":"999","REF_FRAME":"TEME","REV_AT_EPOCH":"7156","SEMIMAJOR_AXIS":"6925.371","BSTAR":"0.00012796000000","GP_ID":"205927710","RA_OF_ASC_NODE":"238.7330","RCS_SIZE":"LARGE","COUNTRY_CODE":"US","MEAN_MOTION_DOT":"0.00001625","INCLINATION":"53.0548","OBJECT_TYPE":"PAYLOAD","CENTER_NAME":"EARTH","TLE_LINE1":"1 47760U 21017AQ  22162.59974109  .00001625  00000-0  12796-3 0  9994","NORAD_CAT_ID":"47760","MEAN_ANOMALY":"316.0485","TLE_LINE2":"2 47760  53.0548 238.7330 0001562  44.0628 316.0485 15.06392838 71566","ECCENTRICITY":"0.00015620","PERIOD":"95.593","EPOCH":"2022-06-11T14:23:37.630176","ARG_OF_PERICENTER":"44.0628","OBJECT_ID":"2021-017AQ"}];
